[{"OBJECT_NAME":"STARLINK-5712","OBJECT_ID":"2023-020AY","EPOCH":"2026-03-09T22:00:01.999584","MEAN_MOTION":15.05613237,"ECCENTRICITY":0.00018523,"INCLINATION":43.0014,"RA_OF_ASC_NODE":350.371,"ARG_OF_PERICENTER":260.8922,"MEAN_ANOMALY":117.6321,"EPHEMERIS_TYPE":0,"CLASSIFICATION_TYPE":"U","NORAD_CAT_ID":55615,"ELEMENT_SET_NO":999,"REV_AT_EPOCH":578,"BSTAR":0.00087221994,"MEAN_MOTION_DOT":0.00012606,"MEAN_MOTION_DDOT":0},{"OBJECT_NAME":"YUNYAO-1 44","OBJECT_ID":"2025-059B","EPOCH":"2026-03-09T23:37:33.233088","MEAN_MOTION":15.10344945,"ECCENTRICITY":0.00180831,"INCLINATION":97.6069,"RA_OF_ASC_NODE":250.8958,"ARG_OF_PERICENTER":135.5449,"MEAN_ANOMALY":224.7236,"EPHEMERIS_TYPE":0,"CLASSIFICATION_TYPE":"U","NORAD_CAT_ID":63345,"ELEMENT_SET_NO":999,"REV_AT_EPOCH":5332,"BSTAR":0.0003556422,"MEAN_MOTION_DOT":5.791e-5,"MEAN_MOTION_DDOT":0}]
